OSCAR 7 (AO-7)          
1 07530U 74089B   26178.98798656 -.00000026  00000+0  12428-3 0  9993
2 07530 101.9899 192.3471 0012646 110.1261 277.5326 12.53698275361877
PHASE 3B (AO-10)        
1 14129U 83058B   26177.59526761 -.00000217  00000+0  00000+0 0  9994
2 14129  25.9202 218.0092 6007622 118.2548 314.1516  2.05872938295688
UOSAT 2 (UO-11)         
1 14781U 84021B   26178.89341282  .00001220  00000+0  12960-3 0  9992
2 14781  97.8063 144.3487 0008543 139.5335 220.6520 14.90809024258724
LUSAT (LO-19)           
1 20442U 90005G   26178.78680034  .00000112  00000+0  56853-4 0  9990
2 20442  98.8846 200.8844 0011743 169.7641 190.3784 14.34126150903914
EYESAT A (AO-27)        
1 22825U 93061C   26178.90798590  .00000085  00000+0  49214-4 0  9995
2 22825  98.6877 246.3175 0009462  72.1559 288.0655 14.30944890708533
ITAMSAT (IO-26)         
1 22826U 93061D   26178.95410226  .00000087  00000+0  49467-4 0  9990
2 22826  98.6824 246.2821 0009838  56.9186 303.2940 14.31372077708851
RADIO ROSTO (RS15)      
1 23439U 94085A   26178.84736098 -.00000055  00000+0 -35731-3 0  9999
2 23439  64.8183 285.9761 0156309   1.9085 358.2405 11.27583364297104
JAS-2 (FO-29)           
1 24278U 96046B   26178.80971564 -.00000017  00000+0  15568-4 0  9999
2 24278  98.5230  26.2261 0350884  68.9497 294.8790 13.53274813474609
TECHSAT 1B (GO-32)      
1 25397U 98043D   26178.95204773  .00000054  00000+0  43505-4 0  9990
2 25397  99.0072 171.9824 0001587 143.0140 217.1148 14.24430403452865
ISS (ZARYA)             
1 25544U 98067A   26178.70295938  .00005900  00000+0  11337-3 0  9998
2 25544  51.6321 248.0384 0004261 239.2483 120.8086 15.49456407573389
PCSAT (NO-44)           
1 26931U 01043C   26178.84564670  .00000088  00000+0  63653-4 0  9995
2 26931  67.0492 216.7043 0006036 265.2974  94.7439 14.31959358291976
SAUDISAT 1C (SO-50)     
1 27607U 02058C   26178.87696395  .00000912  00000+0  12482-3 0  9995
2 27607  64.5520  95.9116 0075010 260.4752  98.7871 14.83068196266040
CUTE-1 (CO-55)          
1 27844U 03031E   26178.85535065  .00000274  00000+0  13740-3 0  9993
2 27844  98.6736 187.2801 0010185 148.1888 211.9908 14.24341870193193
CUBESAT XI-IV (CO-57)   
1 27848U 03031J   26178.56803147  .00000234  00000+0  12175-3 0  9991
2 27848  98.6767 186.7007 0009661 166.6702 193.4734 14.23626048192855
MOZHAETS 4 (RS22)       
1 27939U 03042A   26178.95964078  .00001016  00000+0  16472-3 0  9991
2 27939  98.3469   3.6232 0010073 231.0982 286.3646 14.73485639217132
CUBESAT XI-V            
1 28895U 05043F   26178.39064754  .00001463  00000+0  23760-3 0  9990
2 28895  98.2993 334.2271 0014350 168.3542 191.8000 14.72657931103253
CUTE-1.7+APD II (CO-65) 
1 32785U 08021C   26178.92124602  .00004615  00000+0  29155-3 0  9996
2 32785  97.8271 160.5636 0008655   5.1197 355.0118 15.09550491986819
SEEDS II (CO-66)        
1 32791U 08021J   26178.97154073  .00017585  00000+0  55169-3 0  9997
2 32791  97.7514 177.3863 0000745 205.3890 154.7314 15.33110926988949
YUBILEINY (RS30)        
1 32953U 08025A   26178.88252182  .00000000  00000+0 -68249-4 0  9990
2 32953  82.5044 348.7860 0018538 289.2394  70.6680 12.43179960821027
KKS-1 (KISEKI)          
1 33499U 09002H   26178.91617175  .00001290  00000+0  16493-3 0  9997
2 33499  98.1186 101.5285 0006405 253.2559 106.7951 14.83149708937789
SWISSCUBE               
1 35932U 09051B   26178.97854909  .00000952  00000+0  19747-3 0  9998
2 35932  98.4028  87.0546 0006746 167.8214 192.3151 14.62500860890738
BEESAT-1                
1 35933U 09051C   26178.71979853  .00000772  00000+0  16466-3 0  9992
2 35933  98.3956  86.4047 0004926 179.9707 180.1494 14.61736125890724
ITUPSAT1                
1 35935U 09051E   26178.71991485  .00000704  00000+0  15534-3 0  9999
2 35935  98.4041  85.5856 0006821 196.6461 163.4516 14.60455093890279
XIWANG-1 (HOPE-1)       
1 36122U 09072B   26178.95975743 -.00000349  00000+0 -79646-3 0  9997
2 36122 100.4023 132.6200 0007086 205.0002 155.0769 13.16438546794420
O/OREOS (USA 219)       
1 37224U 10062C   26178.77721429  .00002214  00000+0  21433-3 0  9994
2 37224  71.9713  56.3509 0012953  40.4272 319.7859 14.93787063118229
JUGNU                   
1 37839U 11058B   26178.52414397  .00000404  00000+0  71023-4 0  9998
2 37839  19.9596 245.6289 0018437 190.0479 199.3763 14.13779214760493
SRMSAT                  
1 37841U 11058D   26178.81758627  .00000369  00000+0  56564-4 0  9993
2 37841  19.9735 355.1269 0011731 321.2874  66.8702 14.11577638759328
STRAND-1                
1 39090U 13009E   26178.77774544  .00000277  00000+0  10736-3 0  9998
2 39090  98.3924 358.7515 0008324 191.3030 168.7972 14.37169285698588
ZACUBE-1 (TSHEPISOSAT)  
1 39417U 13066B   26178.93868365  .00002961  00000+0  23110-3 0  9999
2 39417  97.8046 141.3307 0042300 211.1560 148.7156 15.01245243682346
GOMX-1                  
1 39430U 13066Q   26178.94454054  .00002280  00000+0  34545-3 0  9999
2 39430  97.6483  18.7286 0129765  43.4002 317.7334 14.69497612671497
